*******************************************************************************
Ephemeris / WWW_USER Mon Mar 10 14:47:57 2025 Pasadena, USA      / Horizons    
*******************************************************************************
Target body name: (2018 RD5)                      {source: JPL#11}
Center body name: Earth (399)                     {source: DE441}
Center-site name: Gemini South Obs., Cerro Pachon
*******************************************************************************
Start time      : A.D. 2018-Aug-25 22:32:00.0000 UT      
Stop  time      : A.D. 2018-Aug-26 10:57:00.0000 UT      
Step-size       : 1 minutes
*******************************************************************************
Target pole/equ : undefined
Target radii    : undefined                                                    
Center geodetic : 289.2634, -30.2406227, 2.71233  {E-lon(deg),Lat(deg),Alt(km)}
Center cylindric: 289.2634,5517.21435,-3194.81213 {E-lon(deg),Dxy(km),Dz(km)}
Center pole/equ : ITRF93                          {East-longitude positive}
Center radii    : 6378.137, 6378.137, 6356.752 km {Equator_a, b, pole_c}       
Target primary  : Sun
Vis. interferer : MOON (R_eq= 1737.400) km        {source: DE441}
Rel. light bend : Sun                             {source: DE441}
Rel. lght bnd GM: 1.3271E+11 km^3/s^2                                          
Small-body perts: Yes                             {source: SB441-N16}
Atmos refraction: NO (AIRLESS)
RA format       : HMS
Time format     : CAL 
Calendar mode   : Mixed Julian/Gregorian
RTS-only print  : NO       
EOP file        : eop.250307.p250603                                           
EOP coverage    : DATA-BASED 1962-JAN-20 TO 2025-MAR-07. PREDICTS-> 2025-JUN-02
Units conversion: 1 au= 149597870.700 km, c= 299792.458 km/s, 1 day= 86400.0 s 
Table cut-offs 1: Elevation (-90.0deg=NO ),Airmass (>38.000=NO), Daylight (YES)
Table cut-offs 2: Solar elongation (  0.0,180.0=NO ),Local Hour Angle( 0.0=NO )
Table cut-offs 3: RA/DEC angular rate (     0.0=NO )                           
*******************************************************************************
Initial IAU76/J2000 heliocentric ecliptic osculating elements (au, days, deg.):
  EPOCH=  2458378.5 ! 2018-Sep-17.00 (TDB)         Residual RMS= .55339        
   EC= .2891632988519429   QR= 1.009650912138325   TP= 2458360.6433297051      
   OM= 171.0145363394364   W=  163.7983400129293   IN= 8.474307805886117       
  Equivalent ICRF heliocentric cartesian coordinates (au, au/d):
   X= 1.017757009008053E+00  Y=-8.967367621791844E-02  Z=-4.840656937149759E-02
  VX= 3.309922676318766E-03 VY= 1.832358809606965E-02 VZ= 4.854018792897502E-03
Asteroid physical parameters (km, seconds, rotational period in hours):        
   GM= n.a.                RAD= n.a.               ROTPER= n.a.                
   H= 25.9                 G= .150                 B-V= n.a.                   
                           ALBEDO= n.a.            STYP= n.a.                  
*******************************************************************************
 Date__(UT)__HR:MN     R.A._________(ICRF)_________DEC
******************************************************
$$SOE
 2018-Aug-26 02:38  m  16 34 45.798653 +34 36 13.34770
 2018-Aug-26 02:39  m  16 34 45.888566 +34 36 13.61524
 2018-Aug-26 02:40  m  16 34 45.978638 +34 36 13.88203
 2018-Aug-26 02:41  m  16 34 46.068869 +34 36 14.14808
 2018-Aug-26 02:42  m  16 34 46.159259 +34 36 14.41339
 2018-Aug-26 02:43  m  16 34 46.249808 +34 36 14.67797
 2018-Aug-26 02:44  m  16 34 46.340518 +34 36 14.94182
 2018-Aug-26 02:45  m  16 34 46.431389 +34 36 15.20494
 2018-Aug-26 02:46  m  16 34 46.522420 +34 36 15.46734
 2018-Aug-26 02:47  m  16 34 46.613613 +34 36 15.72903
 2018-Aug-26 02:48  m  16 34 46.704969 +34 36 15.99001
 2018-Aug-26 02:49  m  16 34 46.796486 +34 36 16.25028
 2018-Aug-26 02:50  m  16 34 46.888167 +34 36 16.50985
 2018-Aug-26 02:51  m  16 34 46.980012 +34 36 16.76872
 2018-Aug-26 02:52  m  16 34 47.072020 +34 36 17.02690
 2018-Aug-26 02:53  m  16 34 47.164192 +34 36 17.28439
 2018-Aug-26 02:54  m  16 34 47.256530 +34 36 17.54120
 2018-Aug-26 02:55  m  16 34 47.349033 +34 36 17.79733
 2018-Aug-26 02:56  m  16 34 47.441701 +34 36 18.05278
 2018-Aug-26 02:57  m  16 34 47.534536 +34 36 18.30757
 2018-Aug-26 02:58  m  16 34 47.627537 +34 36 18.56170
 2018-Aug-26 02:59  m  16 34 47.720706 +34 36 18.81517
 2018-Aug-26 03:00  m  16 34 47.814042 +34 36 19.06798
 2018-Aug-26 03:01  m  16 34 47.907545 +34 36 19.32014
 2018-Aug-26 03:02  m  16 34 48.001217 +34 36 19.57166
 2018-Aug-26 03:03  m  16 34 48.095058 +34 36 19.82254
 2018-Aug-26 03:04  m  16 34 48.189069 +34 36 20.07278
 2018-Aug-26 03:05  m  16 34 48.283248 +34 36 20.32240
 2018-Aug-26 03:06  m  16 34 48.377598 +34 36 20.57139
 2018-Aug-26 03:07  m  16 34 48.472118 +34 36 20.81976
 2018-Aug-26 03:08  m  16 34 48.566810 +34 36 21.06751
 2018-Aug-26 03:09  m  16 34 48.661672 +34 36 21.31466
 2018-Aug-26 03:10  m  16 34 48.756706 +34 36 21.56119
 2018-Aug-26 03:11  m  16 34 48.851912 +34 36 21.80713
 2018-Aug-26 03:12  m  16 34 48.947291 +34 36 22.05248
 2018-Aug-26 03:13  m  16 34 49.042842 +34 36 22.29723
 2018-Aug-26 03:14  m  16 34 49.138567 +34 36 22.54140
 2018-Aug-26 03:15  m  16 34 49.234465 +34 36 22.78499
 2018-Aug-26 03:16  m  16 34 49.330538 +34 36 23.02800
 2018-Aug-26 03:17  m  16 34 49.426785 +34 36 23.27044
 2018-Aug-26 03:18  m  16 34 49.523206 +34 36 23.51232
 2018-Aug-26 03:19  m  16 34 49.619803 +34 36 23.75364
 2018-Aug-26 03:20  m  16 34 49.716575 +34 36 23.99440
 2018-Aug-26 03:21  m  16 34 49.813524 +34 36 24.23461
 2018-Aug-26 03:22  m  16 34 49.910648 +34 36 24.47428
 2018-Aug-26 03:23  m  16 34 50.007949 +34 36 24.71341
 2018-Aug-26 03:24  m  16 34 50.105427 +34 36 24.95200
 2018-Aug-26 03:25  m  16 34 50.203083 +34 36 25.19006
 2018-Aug-26 03:26  m  16 34 50.300916 +34 36 25.42760
 2018-Aug-26 03:27  m  16 34 50.398928 +34 36 25.66462
 2018-Aug-26 03:28  m  16 34 50.497117 +34 36 25.90112
 2018-Aug-26 03:29  m  16 34 50.595486 +34 36 26.13712
 2018-Aug-26 03:30  m  16 34 50.694033 +34 36 26.37261
 2018-Aug-26 03:31  m  16 34 50.792760 +34 36 26.60761
 2018-Aug-26 03:32  m  16 34 50.891667 +34 36 26.84211
 2018-Aug-26 03:33  m  16 34 50.990754 +34 36 27.07612
 2018-Aug-26 03:34  m  16 34 51.090022 +34 36 27.30965
 2018-Aug-26 03:35  m  16 34 51.189470 +34 36 27.54270
 2018-Aug-26 03:36  m  16 34 51.289099 +34 36 27.77528
 2018-Aug-26 03:37  m  16 34 51.388909 +34 36 28.00739
 2018-Aug-26 03:38  m  16 34 51.488902 +34 36 28.23904
 2018-Aug-26 03:39  m  16 34 51.589076 +34 36 28.47024
 2018-Aug-26 03:40  s  16 34 51.689433 +34 36 28.70098
 2018-Aug-26 03:41  m  16 34 51.789972 +34 36 28.93127
 2018-Aug-26 03:42  m  16 34 51.890694 +34 36 29.16113
 2018-Aug-26 03:43  m  16 34 51.991600 +34 36 29.39055
 2018-Aug-26 03:44  m  16 34 52.092689 +34 36 29.61954
 2018-Aug-26 03:45  m  16 34 52.193961 +34 36 29.84810
 2018-Aug-26 03:46  m  16 34 52.295418 +34 36 30.07625
 2018-Aug-26 03:47  m  16 34 52.397060 +34 36 30.30398
 2018-Aug-26 03:48  m  16 34 52.498886 +34 36 30.53130
 2018-Aug-26 03:49  m  16 34 52.600897 +34 36 30.75822
 2018-Aug-26 03:50  m  16 34 52.703093 +34 36 30.98474
 2018-Aug-26 03:51  m  16 34 52.805474 +34 36 31.21087
 2018-Aug-26 03:52  m  16 34 52.908042 +34 36 31.43661
 2018-Aug-26 03:53  m  16 34 53.010795 +34 36 31.66196
 2018-Aug-26 03:54  m  16 34 53.113735 +34 36 31.88695
 2018-Aug-26 03:55  m  16 34 53.216862 +34 36 32.11156
 2018-Aug-26 03:56  m  16 34 53.320175 +34 36 32.33580
 2018-Aug-26 03:57  m  16 34 53.423675 +34 36 32.55968
 2018-Aug-26 03:58  m  16 34 53.527363 +34 36 32.78321
 2018-Aug-26 03:59  m  16 34 53.631238 +34 36 33.00639
 2018-Aug-26 04:00  m  16 34 53.735301 +34 36 33.22923
 2018-Aug-26 04:01  m  16 34 53.839552 +34 36 33.45173
 2018-Aug-26 04:02  m  16 34 53.943991 +34 36 33.67389
 2018-Aug-26 04:03  m  16 34 54.048619 +34 36 33.89573
 2018-Aug-26 04:04  m  16 34 54.153435 +34 36 34.11725
 2018-Aug-26 04:05  m  16 34 54.258441 +34 36 34.33844
 2018-Aug-26 04:06  m  16 34 54.363635 +34 36 34.55933
 2018-Aug-26 04:07  m  16 34 54.469019 +34 36 34.77991
 2018-Aug-26 04:08  m  16 34 54.574593 +34 36 35.00020
 2018-Aug-26 04:09  m  16 34 54.680357 +34 36 35.22018
 2018-Aug-26 04:10  m  16 34 54.786310 +34 36 35.43988
 2018-Aug-26 04:11  m  16 34 54.892454 +34 36 35.65930
 2018-Aug-26 04:12  m  16 34 54.998788 +34 36 35.87843
 2018-Aug-26 04:13  m  16 34 55.105313 +34 36 36.09730
 2018-Aug-26 04:14  m  16 34 55.212028 +34 36 36.31590
 2018-Aug-26 04:15  m  16 34 55.318935 +34 36 36.53423
 2018-Aug-26 04:16  m  16 34 55.426033 +34 36 36.75231
 2018-Aug-26 04:17  m  16 34 55.533322 +34 36 36.97014
 2018-Aug-26 04:18  m  16 34 55.640803 +34 36 37.18773
 2018-Aug-26 04:19  m  16 34 55.748476 +34 36 37.40507
 2018-Aug-26 04:20  m  16 34 55.856340 +34 36 37.62219
 2018-Aug-26 04:21  m  16 34 55.964397 +34 36 37.83907
 2018-Aug-26 04:22  m  16 34 56.072646 +34 36 38.05574
 2018-Aug-26 04:23  m  16 34 56.181087 +34 36 38.27218
 2018-Aug-26 04:24  m  16 34 56.289721 +34 36 38.48842
 2018-Aug-26 04:25  m  16 34 56.398547 +34 36 38.70445
 2018-Aug-26 04:26  m  16 34 56.507567 +34 36 38.92028
 2018-Aug-26 04:27  m  16 34 56.616779 +34 36 39.13591
 2018-Aug-26 04:28  m  16 34 56.726185 +34 36 39.35136
 2018-Aug-26 04:29  m  16 34 56.835784 +34 36 39.56662
 2018-Aug-26 04:30  m  16 34 56.945576 +34 36 39.78171
 2018-Aug-26 04:31  m  16 34 57.055562 +34 36 39.99663
 2018-Aug-26 04:32  m  16 34 57.165742 +34 36 40.21138
 2018-Aug-26 04:33  m  16 34 57.276115 +34 36 40.42596
 2018-Aug-26 04:34  m  16 34 57.386683 +34 36 40.64040
 2018-Aug-26 04:35  m  16 34 57.497445 +34 36 40.85468
 2018-Aug-26 04:36  m  16 34 57.608400 +34 36 41.06882
 2018-Aug-26 04:37  m  16 34 57.719551 +34 36 41.28283
 2018-Aug-26 04:38  m  16 34 57.830895 +34 36 41.49670
 2018-Aug-26 04:39  m  16 34 57.942434 +34 36 41.71044
 2018-Aug-26 04:40  m  16 34 58.054168 +34 36 41.92407
